{
    "links": {
        "self": "http://www.neowsapp.com/rest/v1/neo/3454527?api_key=iIulBulltgU6a56xZRHN4H3l9WmuAYTsLGpBGhQ2"
    },
    "id": "3454527",
    "neo_reference_id": "3454527",
    "name": "(2009 FS)",
    "designation": "2009 FS",
    "nasa_jpl_url": "http://ssd.jpl.nasa.gov/sbdb.cgi?sstr=3454527",
    "absolute_magnitude_h": 24.2,
    "estimated_diameter": {
        "kilometers": {
            "estimated_diameter_min": 0.0384197891,
            "estimated_diameter_max": 0.0859092601
        },
        "meters": {
            "estimated_diameter_min": 38.4197891064,
            "estimated_diameter_max": 85.9092601232
        },
        "miles": {
            "estimated_diameter_min": 0.0238729428,
            "estimated_diameter_max": 0.0533815229
        },
        "feet": {
            "estimated_diameter_min": 126.0491808919,
            "estimated_diameter_max": 281.8545369825
        }
    },
    "is_potentially_hazardous_asteroid": false,
    "close_approach_data": [
        {
            "close_approach_date": "2009-03-27",
            "close_approach_date_full": "2009-Mar-27 06:43",
            "epoch_date_close_approach": 1238136180000,
            "relative_velocity": {
                "kilometers_per_second": "11.0687098718",
                "kilometers_per_hour": "39847.3555386481",
                "miles_per_hour": "24759.5971123339"
            },
            "miss_distance": {
                "astronomical": "0.0270983293",
                "lunar": "10.5412500977",
                "kilometers": "4053852.343838591",
                "miles": "2518947.0413349158"
            },
            "orbiting_body": "Earth"
        }
    ],
    "orbital_data": {
        "orbit_id": "11",
        "orbit_determination_date": "2017-04-06 09:00:59",
        "first_observation_date": "2009-03-17",
        "last_observation_date": "2009-03-26",
        "data_arc_in_days": 9,
        "observations_used": 42,
        "orbit_uncertainty": "8",
        "minimum_orbit_intersection": ".0128039",
        "jupiter_tisserand_invariant": "3.196",
        "epoch_osculation": "2454909.5",
        "eccentricity": ".6208647037348552",
        "semi_major_axis": "2.449247978013998",
        "inclination": "4.728748560744968",
        "ascending_node_longitude": "173.7655158391724",
        "orbital_period": "1400.062953774769",
        "perihelion_distance": ".9285963577711437",
        "perihelion_argument": "44.20701991105665",
        "aphelion_distance": "3.969899598256851",
        "perihelion_time": "2454941.864920624592",
        "mean_anomaly": "351.677966056141",
        "mean_motion": ".2571312947245614",
        "equinox": "J2000",
        "orbit_class": {
            "orbit_class_type": "APO",
            "orbit_class_description": "Near-Earth asteroid orbits which cross the Earth’s orbit similar to that of 1862 Apollo",
            "orbit_class_range": "a (semi-major axis) > 1.0 AU; q (perihelion) < 1.017 AU"
        }
    },
    "is_sentry_object": false
}